[{"OBJECT_NAME":"LEO 3","OBJECT_ID":"2023-100G","EPOCH":"2026-03-09T21:30:59.468832","MEAN_MOTION":13.68417596,"ECCENTRICITY":0.00174207,"INCLINATION":99.5469,"RA_OF_ASC_NODE":194.2149,"ARG_OF_PERICENTER":270.7947,"MEAN_ANOMALY":89.1202,"EPHEMERIS_TYPE":0,"CLASSIFICATION_TYPE":"U","NORAD_CAT_ID":57392,"ELEMENT_SET_NO":999,"REV_AT_EPOCH":13206,"BSTAR":5.3471744e-5,"MEAN_MOTION_DOT":1.0e-8,"MEAN_MOTION_DDOT":0},{"OBJECT_NAME":"THOR ABLESTAR DEB","OBJECT_ID":"1961-015HX","EPOCH":"2026-03-09T13:56:42.962784","MEAN_MOTION":13.57541426,"ECCENTRICITY":0.031198,"INCLINATION":66.987,"RA_OF_ASC_NODE":151.2014,"ARG_OF_PERICENTER":150.8521,"MEAN_ANOMALY":211.0365,"EPHEMERIS_TYPE":0,"CLASSIFICATION_TYPE":"U","NORAD_CAT_ID":3124,"ELEMENT_SET_NO":999,"REV_AT_EPOCH":15562,"BSTAR":0.0024494,"MEAN_MOTION_DOT":2.344e-5,"MEAN_MOTION_DDOT":0}]
